{
  "type": "FeatureCollection",
  "features": [
    {
      "type": "Feature",
      "properties": { "name": "Gulf Coast" },
      "geometry": {
        "type": "LineString",
        "coordinates": [
          [-97, 26], [-96, 27], [-95, 28], [-94, 29], [-93, 29.5], [-92, 29.6],
          [-91, 29.4], [-90, 29.2], [-89, 29.5], [-88, 30], [-87, 30.2],
          [-86, 30], [-85, 29.8], [-84, 29.9], [-83, 29.7], [-82.5, 29]
        ]
      }
    },
    {
      "type": "Feature",
      "properties": { "name": "Florida" },
      "geometry": {
        "type": "LineString",
        "coordinates": [
          [-82.5, 29], [-82, 28.5], [-81.5, 28], [-81, 27], [-80.5, 26.5],
          [-80.2, 26], [-80, 25.5], [-80.1, 25], [-80.3, 24.7], [-80.8, 24.5],
          [-81.5, 24.6], [-82, 24.8], [-82.5, 25.5], [-83, 26], [-83.5, 27],
          [-84, 28], [-84.5, 29], [-85, 29.5], [-85.5, 30], [-86, 30],
          [-87, 30.2]
        ]
      }
    },
    {
      "type": "Feature",
      "properties": { "name": "US East Coast" },
      "geometry": {
        "type": "LineString",
        "coordinates": [
          [-81, 32], [-80.5, 32.5], [-79.5, 33], [-79, 33.5], [-78, 34],
          [-77, 35], [-76, 36], [-75.5, 37], [-75, 38], [-74.5, 39],
          [-74, 40], [-73, 40.7], [-72, 41], [-71, 41.5], [-70.5, 42],
          [-70, 42.5], [-69.5, 43], [-69, 43.5], [-68.5, 44], [-68, 44.5],
          [-67.5, 45]
        ]
      }
    },
    {
      "type": "Feature",
      "properties": { "name": "Bahamas" },
      "geometry": {
        "type": "MultiLineString",
        "coordinates": [
          [[-79, 26.5], [-78.5, 26.7], [-78, 27], [-77.5, 27], [-77, 26.7], [-77, 26]],
          [[-78, 25], [-77.5, 25.5], [-77, 25.5], [-76.5, 25], [-76, 24.5]],
          [[-76, 24], [-75.5, 24.2], [-75, 24], [-74.5, 23.5]]
        ]
      }
    },
    {
      "type": "Feature",
      "properties": { "name": "Cuba" },
      "geometry": {
        "type": "LineString",
        "coordinates": [
          [-84.5, 22], [-83.5, 22.5], [-82.5, 23], [-81.5, 23.2], [-80.5, 23],
          [-79.5, 22.5], [-78.5, 22], [-77.5, 21.7], [-76.5, 21.5], [-75.5, 21],
          [-74.5, 20.5], [-74.2, 20]
        ]
      }
    },
    {
      "type": "Feature",
      "properties": { "name": "Hispaniola" },
      "geometry": {
        "type": "LineString",
        "coordinates": [
          [-74, 20], [-73, 19.5], [-72.5, 19.7], [-72, 19.9], [-71.5, 19.7],
          [-71, 19.5], [-70, 19.5], [-69.5, 19.3], [-69, 19], [-68.5, 18.5],
          [-68.3, 18.3]
        ]
      }
    },
    {
      "type": "Feature",
      "properties": { "name": "Puerto Rico" },
      "geometry": {
        "type": "LineString",
        "coordinates": [
          [-67.5, 18.5], [-67, 18.5], [-66.5, 18.3], [-66, 18], [-65.5, 18],
          [-65.3, 18.2]
        ]
      }
    },
    {
      "type": "Feature",
      "properties": { "name": "Lesser Antilles" },
      "geometry": {
        "type": "MultiLineString",
        "coordinates": [
          [[-62, 17], [-61.8, 17.2], [-61.5, 17.3]],
          [[-61.5, 16], [-61.3, 16.2], [-61, 16.3]],
          [[-61, 15.5], [-60.8, 15.7]],
          [[-61, 14.5], [-60.9, 14.8]],
          [[-61, 13.5], [-60.9, 13.8]],
          [[-61.5, 12.5], [-61.3, 12.7]]
        ]
      }
    },
    {
      "type": "Feature",
      "properties": { "name": "Central America" },
      "geometry": {
        "type": "LineString",
        "coordinates": [
          [-88, 16], [-87.5, 15], [-87, 14], [-86.5, 13.5], [-86, 13],
          [-85.5, 12.5], [-85, 12], [-84.5, 11.5], [-84, 11], [-83.5, 10.5],
          [-83, 10], [-82.5, 9.5], [-82, 9], [-81.5, 9], [-81, 9],
          [-80, 9], [-79.5, 9.2], [-79, 9.3], [-78.5, 9.2], [-78, 9],
          [-77.5, 8.5], [-77.3, 8]
        ]
      }
    },
    {
      "type": "Feature",
      "properties": { "name": "South America" },
      "geometry": {
        "type": "LineString",
        "coordinates": [
          [-72, 12], [-71, 11.5], [-70, 11.5], [-69, 11.5], [-68, 11],
          [-67, 10.5], [-66, 10.8], [-65, 10.5], [-64, 10.5], [-63, 10.7],
          [-62, 11], [-61, 11.5], [-60.5, 11.2], [-60, 11], [-59.5, 10.5],
          [-59, 10], [-58, 9.5], [-57, 9], [-56, 8.5], [-55, 6],
          [-54.5, 5.5], [-54, 5], [-52, 5], [-50, 5]
        ]
      }
    },
    {
      "type": "Feature",
      "properties": { "name": "West Africa" },
      "geometry": {
        "type": "LineString",
        "coordinates": [
          [-17, 21], [-16.5, 20], [-16, 18], [-15.5, 16.5], [-15, 16],
          [-14.5, 15], [-14, 14.5], [-13, 13], [-12, 12], [-11, 11.5],
          [-10, 11], [-9, 10.5], [-8, 10], [-7, 10], [-6, 10.5],
          [-5, 10.5], [-4, 10], [-3, 9.5], [-2, 9.5], [-1, 9.5],
          [0, 9.5], [1, 9.5], [2, 10], [3, 10.5], [4, 11], [5, 11.5]
        ]
      }
    },
    {
      "type": "Feature",
      "properties": { "name": "Morocco/Western Sahara" },
      "geometry": {
        "type": "LineString",
        "coordinates": [
          [-6, 36], [-6.5, 35], [-7, 34], [-7.5, 33], [-8, 32], [-8.5, 31],
          [-9, 30], [-9.5, 29], [-10, 28.5], [-11, 28], [-12, 27], [-13, 26],
          [-14, 25], [-15, 24], [-16, 23], [-16.5, 22], [-17, 21]
        ]
      }
    }
  ]
}

